NORAD_CAT_ID,OBJECT_NAME,OBJECT_TYPE,EPOCH,MEAN_MOTION,ECCENTRICITY,INCLINATION,RA_OF_ASC_NODE,ARG_OF_PERICENTER,MEAN_ANOMALY,BSTAR,MEAN_MOTION_DOT,MEAN_MOTION_DDOT,TLE_LINE0,TLE_LINE1,TLE_LINE2,SEMIMAJOR_AXIS,PERIOD,APOGEE,PERIGEE,DECAYED
53937.0,STARLINK-4765,PAYLOAD,2023-10-20 06:47:16,15.08860304,0.000156,53.217,245.9522,102.7255,257.3912,0.00076167,0.00011861,0.0,0 STARLINK-4765,1 53937U 22119BD  23293.28283154  .00011861  00000-0  76167-3 0  9991,2 53937  53.2170 245.9522 0001560 102.7255 257.3912 15.08860304 60550,6917.818,95.436,540.763,538.604,0.0
53937.0,STARLINK-4765,PAYLOAD,2023-10-20 21:05:45,15.0882779,0.0001598,53.2154,243.2762,88.8352,271.2823,0.00017592,2.512e-05,0.0,0 STARLINK-4765,1 53937U 22119BD  23293.87900155  .00002512  00000-0  17592-3 0  9993,2 53937  53.2154 243.2762 0001598  88.8352 271.2823 15.08827790 60640,6917.918,95.438,540.888,538.677,0.0
53937.0,STARLINK-4765,PAYLOAD,2023-10-21 01:51:55,15.08829976,0.0001432,53.2165,242.3841,103.1888,256.9264,0.00058107,8.969e-05,0.0,0 STARLINK-4765,1 53937U 22119BD  23294.07772327  .00008969  00000-0  58107-3 0  9993,2 53937  53.2165 242.3841 0001432 103.1888 256.9264 15.08829976 60256,6917.911,95.438,540.767,538.785,0.0
53937.0,STARLINK-4765,PAYLOAD,2023-10-21 03:27:18,15.088305,0.0001632,53.2168,242.0875,108.5854,251.5316,0.0004015,6.106e-05,0.0,0 STARLINK-4765,1 53937U 22119BD  23294.14396337  .00006106  00000-0  40150-3 0  9994,2 53937  53.2168 242.0875 0001632 108.5854 251.5316 15.08830500 60688,6917.909,95.438,540.903,538.645,0.0
53937.0,STARLINK-4765,PAYLOAD,2023-10-21 20:56:32,15.08856009,0.0001362,53.2167,238.8146,102.7075,257.4069,0.00093077,0.00014563,0.0,0 STARLINK-4765,1 53937U 22119BD  23294.87259964  .00014563  00000-0  93077-3 0  9990,2 53937  53.2167 238.8146 0001362 102.7075 257.4069 15.08856009 60796,6917.831,95.437,540.639,538.754,0.0
53937.0,STARLINK-4765,PAYLOAD,2023-10-22 03:18:04,15.08879953,0.0001391,53.2165,237.63,90.8614,269.2537,0.0012345,0.00019435,0.0,0 STARLINK-4765,1 53937U 22119BD  23295.13755289  .00019435  00000-0  12345-2 0  9992,2 53937  53.2165 237.6300 0001391  90.8614 269.2537 15.08879953 60414,6917.758,95.435,540.586,538.661,0.0
53937.0,STARLINK-4765,PAYLOAD,2023-10-22 12:50:23,15.0886645,0.0001459,53.2173,235.8428,93.0931,267.0228,0.0004332,6.618e-05,0.0,0 STARLINK-4765,1 53937U 22119BD  23295.53498880  .00006618  00000-0  43320-3 0  9994,2 53937  53.2173 235.8428 0001459  93.0931 267.0228 15.08866450 60899,6917.8,95.436,540.674,538.655,0.0
53937.0,STARLINK-4765,PAYLOAD,2023-10-23 03:08:51,15.08853796,0.0001619,53.2167,233.1697,120.3872,239.728,0.0014118,0.00022261,0.0,0 STARLINK-4765,1 53937U 22119BD  23296.13114722  .00022261  00000-0  14118-2 0  9995,2 53937  53.2167 233.1697 0001619 120.3872 239.7280 15.08853796 60564,6917.838,95.437,540.823,538.583,0.0
53937.0,STARLINK-4765,PAYLOAD,2023-10-23 12:41:09,15.08847111,0.0001051,53.2162,231.383,99.6921,260.419,0.00084133,0.0001313,0.0,0 STARLINK-4765,1 53937U 22119BD  23296.52858737  .00013130  00000-0  84133-3 0  9999,2 53937  53.2162 231.3830 0001051  99.6921 260.4190 15.08847111 60623,6917.859,95.437,540.451,538.997,0.0
53937.0,STARLINK-4765,PAYLOAD,2023-10-24 04:35:02,15.0882084,0.0001493,53.2162,228.411,99.3969,260.7192,0.0018073,0.00028577,0.0,0 STARLINK-4765,1 53937U 22119BD  23297.19100418  .00028577  00000-0  18073-2 0  9999,2 53937  53.2162 228.4110 0001493  99.3969 260.7192 15.08820840 60726,6917.939,95.439,540.837,538.771,0.0
53937.0,STARLINK-4765,PAYLOAD,2023-10-24 12:31:58,15.08829964,0.0001627,53.217,226.9224,97.1251,262.9926,0.0012917,0.00020324,0.0,0 STARLINK-4765,1 53937U 22119BD  23297.52220798  .00020324  00000-0  12917-2 0  9993,2 53937  53.2170 226.9224 0001627  97.1251 262.9926 15.08829964 61190,6917.911,95.438,540.902,538.651,0.0
53937.0,STARLINK-4765,PAYLOAD,2023-10-25 06:01:13,15.08857953,0.0001678,53.2174,223.6511,95.5566,264.5618,0.0012831,0.00020202,0.0,0 STARLINK-4765,1 53937U 22119BD  23298.25084609  .00020202  00000-0  12831-2 0  9993,2 53937  53.2174 223.6511 0001678  95.5566 264.5618 15.08857953 60884,6917.826,95.436,540.851,538.53,0.0
53937.0,STARLINK-4765,PAYLOAD,2023-10-26 02:41:14,15.0885275,0.0001509,53.217,219.7854,102.2292,257.8869,0.0014267,0.00022499,0.0,0 STARLINK-4765,1 53937U 22119BD  23299.11196894  .00022499  00000-0  14267-2 0  9994,2 53937  53.2170 219.7854 0001509 102.2292 257.8869 15.08852750 61010,6917.841,95.437,540.75,538.663,0.0
53937.0,STARLINK-4765,PAYLOAD,2023-10-26 07:27:23,15.088672,0.000138,53.2162,218.8933,99.0381,261.0767,0.0013899,0.00021918,0.0,0 STARLINK-4765,1 53937U 22119BD  23299.31068528  .00021918  00000-0  13899-2 0  9993,2 53937  53.2162 218.8933 0001380  99.0381 261.0767 15.08867200 61467,6917.797,95.436,540.617,538.708,0.0
53937.0,STARLINK-4765,PAYLOAD,2023-10-27 04:07:23,15.08890807,0.0001458,53.2169,215.0287,92.1633,267.9527,0.0030164,0.00048113,0.0,0 STARLINK-4765,1 53937U 22119BD  23300.17179990  .00048113  00000-0  30164-2 0  9996,2 53937  53.2169 215.0287 0001458  92.1633 267.9527 15.08890807 61171,6917.725,95.434,540.599,538.581,0.0
53937.0,STARLINK-4765,PAYLOAD,2023-10-27 12:04:19,15.08859145,0.0001654,53.2176,213.542,98.262,261.856,0.00049341,7.577e-05,0.0,0 STARLINK-4765,1 53937U 22119BD  23300.50300121  .00007577  00000-0  49341-3 0  9992,2 53937  53.2176 213.5420 0001654  98.2620 261.8560 15.08859145 61228,6917.822,95.436,540.831,538.543,0.0
53937.0,STARLINK-4765,PAYLOAD,2023-10-27 21:36:38,15.08833855,0.0001728,53.2166,211.7564,120.1775,239.9388,0.00072914,0.00011333,0.0,0 STARLINK-4765,1 53937U 22119BD  23300.90044486  .00011333  00000-0  72914-3 0  9992,2 53937  53.2166 211.7564 0001728 120.1775 239.9388 15.08833855 61701,6917.899,95.438,540.96,538.569,0.0
53937.0,STARLINK-4765,PAYLOAD,2023-10-28 00:47:24,15.08838979,0.0001665,53.217,211.1628,114.3414,245.7752,0.0014132,0.00022274,0.0,0 STARLINK-4765,1 53937U 22119BD  23301.03292692  .00022274  00000-0  14132-2 0  9994,2 53937  53.2170 211.1628 0001665 114.3414 245.7752 15.08838979 61304,6917.884,95.438,540.9,538.597,0.0
53937.0,STARLINK-4765,PAYLOAD,2023-10-28 03:58:11,15.08842532,0.0001647,53.2169,210.5681,114.7728,245.3435,0.0017552,0.00027758,0.0,0 STARLINK-4765,1 53937U 22119BD  23301.16540679  .00027758  00000-0  17552-2 0  9990,2 53937  53.2169 210.5681 0001647 114.7728 245.3435 15.08842532 61748,6917.873,95.437,540.877,538.598,0.0
53937.0,STARLINK-4765,PAYLOAD,2023-10-28 21:27:26,15.0884574,0.0001739,53.2172,207.2966,118.5164,241.6004,0.0015492,0.00024457,0.0,0 STARLINK-4765,1 53937U 22119BD  23301.89405427  .00024457  00000-0  15492-2 0  9995,2 53937  53.2172 207.2966 0001739 118.5164 241.6004 15.08845740 61856,6917.863,95.437,540.931,538.525,0.0
53937.0,STARLINK-4765,PAYLOAD,2023-10-29 03:48:58,15.08863234,0.00012,53.2174,206.1086,107.8355,252.2768,0.0022884,0.00036343,0.0,0 STARLINK-4765,1 53937U 22119BD  23302.15901318  .00036343  00000-0  22884-2 0  9995,2 53937  53.2174 206.1086 0001200 107.8355 252.2768 15.08863234 61476,6917.809,95.436,540.505,538.844,0.0
53937.0,STARLINK-4765,PAYLOAD,2023-10-29 10:10:30,15.08878461,0.0001183,53.2172,204.9181,108.5262,251.5859,0.0020998,0.00033324,0.0,0 STARLINK-4765,1 53937U 22119BD  23302.42396794  .00033324  00000-0  20998-2 0  9991,2 53937  53.2172 204.9181 0001183 108.5262 251.5859 15.08878461 61933,6917.763,95.435,540.446,538.809,0.0
53937.0,STARLINK-4765,PAYLOAD,2023-10-29 22:53:35,15.0886004,0.0001054,53.2175,202.5412,98.7894,261.3218,-9.7147e-05,-1.834e-05,0.0,0 STARLINK-4765,1 53937U 22119BD  23302.95387985 -.00001834  00000-0 -97147-4 0  9996,2 53937  53.2175 202.5412 0001054  98.7894 261.3218 15.08860040 62017,6917.819,95.436,540.413,538.955,0.0
53937.0,STARLINK-4765,PAYLOAD,2023-10-30 03:39:45,15.08843635,0.0001314,53.2171,201.6473,97.0154,263.0987,0.00024006,3.535e-05,0.0,0 STARLINK-4765,1 53937U 22119BD  23303.15260478  .00003535  00000-0  24006-3 0  9997,2 53937  53.2171 201.6473 0001314  97.0154 263.0987 15.08843635 61629,6917.869,95.437,540.643,538.825,0.0
53937.0,STARLINK-4765,PAYLOAD,2023-10-30 10:01:17,15.0882801,0.0001321,53.2171,200.457,84.5712,275.543,0.0004713,7.218e-05,0.0,0 STARLINK-4765,1 53937U 22119BD  23303.41756860  .00007218  00000-0  47130-3 0  9996,2 53937  53.2171 200.4570 0001321  84.5712 275.5430 15.08828010 61668,6917.917,95.438,540.696,538.868,0.0
53937.0,STARLINK-4765,PAYLOAD,2023-10-30 21:09:00,15.08827624,0.0001498,53.2167,198.377,97.4926,262.6237,-0.00020151,-3.492e-05,0.0,0 STARLINK-4765,1 53937U 22119BD  23303.88125368 -.00003492  00000-0 -20151-3 0  9996,2 53937  53.2167 198.3770 0001498  97.4926 262.6237 15.08827624 62152,6917.918,95.438,540.82,538.747,0.0
53937.0,STARLINK-4765,PAYLOAD,2023-10-31 09:52:05,15.08837904,0.0001249,53.217,195.9988,89.7855,270.328,0.00047966,7.354e-05,0.0,0 STARLINK-4765,1 53937U 22119BD  23304.41117642  .00007354  00000-0  47966-3 0  9994,2 53937  53.2170 195.9988 0001249  89.7855 270.3280 15.08837904 62234,6917.887,95.438,540.616,538.888,0.0
53937.0,STARLINK-4765,PAYLOAD,2023-10-31 22:35:10,15.08842285,0.0001327,53.2166,193.62,86.9039,273.2105,0.00049224,7.555e-05,0.0,0 STARLINK-4765,1 53937U 22119BD  23304.94109770  .00007555  00000-0  49224-3 0  9997,2 53937  53.2166 193.6200 0001327  86.9039 273.2105 15.08842285 62316,6917.873,95.437,540.656,538.82,0.0
53937.0,STARLINK-4765,PAYLOAD,2023-11-01 09:42:52,15.08843468,0.0001562,53.2161,191.5378,88.3855,271.7316,0.00027223,4.048e-05,0.0,0 STARLINK-4765,1 53937U 22119BD  23305.40477685  .00004048  00000-0  27223-3 0  9991,2 53937  53.2161 191.5378 0001562  88.3855 271.7316 15.08843468 61968,6917.87,95.437,540.815,538.654,0.0
53937.0,STARLINK-4765,PAYLOAD,2023-11-01 22:25:57,15.08847413,0.0001638,53.2165,189.1589,85.1435,274.9744,0.00022664,3.322e-05,0.0,0 STARLINK-4765,1 53937U 22119BD  23305.93469460  .00003322  00000-0  22664-3 0  9999,2 53937  53.2165 189.1589 0001638  85.1435 274.9744 15.08847413 62462,6917.858,95.437,540.856,538.59,0.0
